KUIPER-00268            
1 67790U 26030AC  26061.79443286  .00032044  00000+0  91692-3 0  9990
2 67790  51.8837 252.3610 0002173  31.4192 328.6924 15.35667063  4038
KUIPER-00270            
1 67791U 26030AD  26061.74592256  .00022882  00000+0  68666-3 0  9992
2 67791  51.8794 252.7739 0009948  37.1014 323.0657 15.34314518  4024
KUIPER-00274            
1 67792U 26030AE  26061.76699212  .00004993  00000+0  17214-3 0  9991
2 67792  51.8822 252.9141 0017229  49.3654 310.8826 15.31676115  4025
KUIPER-00275            
1 67793U 26030AF  26061.74343587  .00023167  00000+0  69365-3 0  9999
2 67793  51.8827 252.7660 0008706  34.4058 325.7490 15.34388755  4023
KUIPER-00276            
1 67794U 26030AG  26061.77078711  .00020941  00000+0  68467-3 0  9996
2 67794  51.8816 252.9368 0018295  45.8212 314.4272 15.31524899  4022
KUIPER-00279            
1 67795U 26030AH  26061.73782299  .00024526  00000+0  71899-3 0  9992
2 67795  51.8788 252.7203 0006148  29.8669 330.2667 15.35038041  4026
